[
    {
        "OBJECT_NAME": "QZS-1 (MICHIBIKI-1)",
        "OBJECT_ID": "2010-045A",
        "EPOCH": "2026-07-22T12:00:38.512800",
        "MEAN_MOTION": 0.8771584,
        "ECCENTRICITY": 0.00067347,
        "INCLINATION": 44.2722,
        "RA_OF_ASC_NODE": 116.0053,
        "ARG_OF_PERICENTER": 37.3321,
        "MEAN_ANOMALY": 141.6761,
        "EPHEMERIS_TYPE": 0,
        "CLASSIFICATION_TYPE": "U",
        "NORAD_CAT_ID": 37158,
        "ELEMENT_SET_NO": 999,
        "REV_AT_EPOCH": 5670,
        "BSTAR": 0,
        "MEAN_MOTION_DOT": -4.7e-07,
        "MEAN_MOTION_DDOT": 0
    },
    {
        "OBJECT_NAME": "QZS-2 (MICHIBIKI-2)",
        "OBJECT_ID": "2017-028A",
        "EPOCH": "2026-07-22T10:34:28.869888",
        "MEAN_MOTION": 1.00274888,
        "ECCENTRICITY": 0.07567047,
        "INCLINATION": 39.3767,
        "RA_OF_ASC_NODE": 242.6339,
        "ARG_OF_PERICENTER": 269.6876,
        "MEAN_ANOMALY": 88.9804,
        "EPHEMERIS_TYPE": 0,
        "CLASSIFICATION_TYPE": "U",
        "NORAD_CAT_ID": 42738,
        "ELEMENT_SET_NO": 999,
        "REV_AT_EPOCH": 798,
        "BSTAR": 0,
        "MEAN_MOTION_DOT": -1.2e-06,
        "MEAN_MOTION_DDOT": 0
    },
    {
        "OBJECT_NAME": "QZS-3 (MICHIBIKI-3)",
        "OBJECT_ID": "2017-048A",
        "EPOCH": "2026-07-22T12:40:38.595936",
        "MEAN_MOTION": 1.00269245,
        "ECCENTRICITY": 0.00028501,
        "INCLINATION": 0.059,
        "RA_OF_ASC_NODE": 203.29,
        "ARG_OF_PERICENTER": 283.6707,
        "MEAN_ANOMALY": 130.4854,
        "EPHEMERIS_TYPE": 0,
        "CLASSIFICATION_TYPE": "U",
        "NORAD_CAT_ID": 42917,
        "ELEMENT_SET_NO": 999,
        "REV_AT_EPOCH": 3261,
        "BSTAR": 0,
        "MEAN_MOTION_DOT": -3.44e-06,
        "MEAN_MOTION_DDOT": 0
    },
    {
        "OBJECT_NAME": "QZS-4 (MICHIBIKI-4)",
        "OBJECT_ID": "2017-062A",
        "EPOCH": "2026-07-21T06:10:27.954336",
        "MEAN_MOTION": 1.00289434,
        "ECCENTRICITY": 0.07469394,
        "INCLINATION": 40.0879,
        "RA_OF_ASC_NODE": 343.0509,
        "ARG_OF_PERICENTER": 268.6822,
        "MEAN_ANOMALY": 279.3148,
        "EPHEMERIS_TYPE": 0,
        "CLASSIFICATION_TYPE": "U",
        "NORAD_CAT_ID": 42965,
        "ELEMENT_SET_NO": 999,
        "REV_AT_EPOCH": 3214,
        "BSTAR": 0,
        "MEAN_MOTION_DOT": -3.58e-06,
        "MEAN_MOTION_DDOT": 0
    },
    {
        "OBJECT_NAME": "QZS-1R (MICHIBIKI-1R)",
        "OBJECT_ID": "2021-096A",
        "EPOCH": "2026-07-19T13:27:51.734016",
        "MEAN_MOTION": 1.00244085,
        "ECCENTRICITY": 0.07555125,
        "INCLINATION": 37.5263,
        "RA_OF_ASC_NODE": 79.1015,
        "ARG_OF_PERICENTER": 272.3091,
        "MEAN_ANOMALY": 279.1178,
        "EPHEMERIS_TYPE": 0,
        "CLASSIFICATION_TYPE": "U",
        "NORAD_CAT_ID": 49336,
        "ELEMENT_SET_NO": 999,
        "REV_AT_EPOCH": 1733,
        "BSTAR": 0,
        "MEAN_MOTION_DOT": -3.22e-06,
        "MEAN_MOTION_DDOT": 0
    },
    {
        "OBJECT_NAME": "QZS-6 (MICHIBIKI-6)",
        "OBJECT_ID": "2025-023A",
        "EPOCH": "2026-07-22T14:12:23.541696",
        "MEAN_MOTION": 1.00273977,
        "ECCENTRICITY": 0.00020586,
        "INCLINATION": 0.0176,
        "RA_OF_ASC_NODE": 52.226,
        "ARG_OF_PERICENTER": 62.8136,
        "MEAN_ANOMALY": 128.8871,
        "EPHEMERIS_TYPE": 0,
        "CLASSIFICATION_TYPE": "U",
        "NORAD_CAT_ID": 62876,
        "ELEMENT_SET_NO": 999,
        "REV_AT_EPOCH": 530,
        "BSTAR": 0,
        "MEAN_MOTION_DOT": -2.3e-06,
        "MEAN_MOTION_DDOT": 0
    }
]
